<!doctype html>

<html>

<head>

<title>TLE for NORAD Catalog Number 44258</title>

</head>

<body>

<pre>
STARLINK-40             
1 44258U 19029Z   19302.11614076  .00001728  00000-0  13809-3 0  9997
2 44258  52.9995 182.8599 0002013  72.7750 287.3458 15.05476803 23944

</pre>
	
</body>

</html>
